ONEWEB-0528             
1 54643U 22166B   23312.82519077 -.00000230  00000+0 -58852-3 0  9996
2 54643  87.9235  73.3664 0001500  94.1425 265.9880 13.21826087 45867
ONEWEB-0539             
1 54644U 22166C   23313.39136050  .00000453  00000+0  10659-2 0  9993
2 54644  87.9239  73.2530 0001746  93.0289 267.1044 13.21826923 46384
ONEWEB-0540             
1 54645U 22166D   23313.08302609  .00000024  00000+0  27235-4 0  9999
2 54645  87.9238  73.3403 0001686  99.2727 260.8597 13.21827076 46352
ONEWEB-0542             
1 54646U 22166E   23313.09802215  .00000167  00000+0  37339-3 0  9992
2 54646  87.9235  73.3124 0002176 100.7474 259.3905 13.21824219 46354
ONEWEB-0545             
1 54647U 22166F   23313.36768892 -.00000004  00000+0 -42205-4 0  9996
2 54647  87.9237  73.2986 0002094  85.0314 275.1059 13.21828383 46362
ONEWEB-0580             
1 54648U 22166G   23313.03810551 -.00000583  00000+0 -14422-2 0  9991
2 54648  87.9234  73.3188 0002153  96.8032 263.3347 13.21829331 46350
ONEWEB-0582             
1 54649U 22166H   23313.38345559  .00000037  00000+0  58523-4 0  9995
2 54649  87.9240  73.2902 0001654  86.1061 274.0262 13.21828112 46384
ONEWEB-0583             
1 54650U 22166J   23313.39449331  .00001215  00000+0  29102-2 0  9999
2 54650  87.9239  73.2943 0001269 109.2628 250.8643 13.21819069 46406
